{
  "links" : {
    "next" : "https://api.nasa.gov/neo/rest/v1/feed?start_date=2008-06-23&end_date=2008-06-23&detailed=true&api_key=t0TVs3DtDT2H8Oy2Zy8m2eVrNsAVKAexjcZXUckd",
    "prev" : "https://api.nasa.gov/neo/rest/v1/feed?start_date=2008-06-21&end_date=2008-06-21&detailed=true&api_key=t0TVs3DtDT2H8Oy2Zy8m2eVrNsAVKAexjcZXUckd",
    "self" : "https://api.nasa.gov/neo/rest/v1/feed?start_date=2008-06-22&end_date=2008-06-22&detailed=true&api_key=t0TVs3DtDT2H8Oy2Zy8m2eVrNsAVKAexjcZXUckd"
  },
  "element_count" : 2,
  "near_earth_objects" : {
    "2008-06-22" : [ {
      "links" : {
        "self" : "https://api.nasa.gov/neo/rest/v1/neo/3412932?api_key=t0TVs3DtDT2H8Oy2Zy8m2eVrNsAVKAexjcZXUckd"
      },
      "neo_reference_id" : "3412932",
      "name" : "(2008 KN11)",
      "nasa_jpl_url" : "http://ssd.jpl.nasa.gov/sbdb.cgi?sstr=3412932",
      "absolute_magnitude_h" : 23.2,
      "estimated_diameter" : {
        "kilometers" : {
          "estimated_diameter_min" : 0.0608912622,
          "estimated_diameter_max" : 0.1361570015
        },
        "meters" : {
          "estimated_diameter_min" : 60.8912622106,
          "estimated_diameter_max" : 136.1570015386
        },
        "miles" : {
          "estimated_diameter_min" : 0.0378360645,
          "estimated_diameter_max" : 0.0846040122
        },
        "feet" : {
          "estimated_diameter_min" : 199.7744887109,
          "estimated_diameter_max" : 446.7093369279
        }
      },
      "is_potentially_hazardous_asteroid" : false,
      "close_approach_data" : [ {
        "close_approach_date" : "2008-06-22",
        "epoch_date_close_approach" : 1214118000000,
        "relative_velocity" : {
          "kilometers_per_second" : "13.2037837591",
          "kilometers_per_hour" : "47533.6215326714",
          "miles_per_hour" : "29535.5438906758"
        },
        "miss_distance" : {
          "astronomical" : "0.0227829846",
          "lunar" : "8.8625812531",
          "kilometers" : "3408286",
          "miles" : "2117810.75"
        },
        "orbiting_body" : "Earth"
      } ],
      "orbital_data" : {
        "orbit_id" : "24",
        "orbit_determination_date" : "2017-04-06 09:03:21",
        "orbit_uncertainty" : "7",
        "minimum_orbit_intersection" : ".000501454",
        "jupiter_tisserand_invariant" : "4.013",
        "epoch_osculation" : "2458000.5",
        "eccentricity" : ".528938612035641",
        "semi_major_axis" : "1.709056813042574",
        "inclination" : "5.271825436023065",
        "ascending_node_longitude" : "89.36799362051239",
        "orbital_period" : "816.0808309338047",
        "perihelion_distance" : ".8050706744617788",
        "perihelion_argument" : "246.077134568266",
        "aphelion_distance" : "2.613042951623369",
        "perihelion_time" : "2457949.547338177510",
        "mean_anomaly" : "22.47688900510934",
        "mean_motion" : ".4411327730711039",
        "equinox" : "J2000"
      }
    }, {
      "links" : {
        "self" : "https://api.nasa.gov/neo/rest/v1/neo/3414403?api_key=t0TVs3DtDT2H8Oy2Zy8m2eVrNsAVKAexjcZXUckd"
      },
      "neo_reference_id" : "3414403",
      "name" : "(2008 MV1)",
      "nasa_jpl_url" : "http://ssd.jpl.nasa.gov/sbdb.cgi?sstr=3414403",
      "absolute_magnitude_h" : 22.2,
      "estimated_diameter" : {
        "kilometers" : {
          "estimated_diameter_min" : 0.096506147,
          "estimated_diameter_max" : 0.2157943048
        },
        "meters" : {
          "estimated_diameter_min" : 96.5061469579,
          "estimated_diameter_max" : 215.7943048444
        },
        "miles" : {
          "estimated_diameter_min" : 0.059966121,
          "estimated_diameter_max" : 0.134088323
        },
        "feet" : {
          "estimated_diameter_min" : 316.6212271853,
          "estimated_diameter_max" : 707.9865871058
        }
      },
      "is_potentially_hazardous_asteroid" : false,
      "close_approach_data" : [ {
        "close_approach_date" : "2008-06-22",
        "epoch_date_close_approach" : 1214118000000,
        "relative_velocity" : {
          "kilometers_per_second" : "14.4851731264",
          "kilometers_per_hour" : "52146.6232550281",
          "miles_per_hour" : "32401.8837664368"
        },
        "miss_distance" : {
          "astronomical" : "0.0551284803",
          "lunar" : "21.444978714",
          "kilometers" : "8247103.5",
          "miles" : "5124512.5"
        },
        "orbiting_body" : "Earth"
      } ],
      "orbital_data" : {
        "orbit_id" : "9",
        "orbit_determination_date" : "2017-04-06 09:03:15",
        "orbit_uncertainty" : "9",
        "minimum_orbit_intersection" : ".0226203",
        "jupiter_tisserand_invariant" : "3.305",
        "epoch_osculation" : "2454651.5",
        "eccentricity" : ".6494739087032343",
        "semi_major_axis" : "2.258531471702524",
        "inclination" : "1.987751405199738",
        "ascending_node_longitude" : "12.59570941882536",
        "orbital_period" : "1239.760076562566",
        "perihelion_distance" : ".7916742088466175",
        "perihelion_argument" : "199.3904147414787",
        "aphelion_distance" : "3.725388734558431",
        "perihelion_time" : "2454599.714232702244",
        "mean_anomaly" : "15.03748715548458",
        "mean_motion" : ".2903787650576374",
        "equinox" : "J2000"
      }
    } ]
  }
}